[{"OBJECT_NAME":"WILDFIRE 4","OBJECT_ID":"2023-133A","EPOCH":"2026-03-09T14:48:10.641312","MEAN_MOTION":13.86338286,"ECCENTRICITY":0.0008775,"INCLINATION":80.9988,"RA_OF_ASC_NODE":101.8986,"ARG_OF_PERICENTER":262.7751,"MEAN_ANOMALY":97.2408,"EPHEMERIS_TYPE":0,"CLASSIFICATION_TYPE":"U","NORAD_CAT_ID":57756,"ELEMENT_SET_NO":999,"REV_AT_EPOCH":12732,"BSTAR":6.2929e-5,"MEAN_MOTION_DOT":8.4e-7,"MEAN_MOTION_DDOT":0},{"OBJECT_NAME":"NIMBUS 2 DEB","OBJECT_ID":"1966-040D","EPOCH":"2026-03-09T05:56:38.960160","MEAN_MOTION":13.79779824,"ECCENTRICITY":0.00331125,"INCLINATION":100.5813,"RA_OF_ASC_NODE":171.4432,"ARG_OF_PERICENTER":29.7642,"MEAN_ANOMALY":359.761,"EPHEMERIS_TYPE":0,"CLASSIFICATION_TYPE":"U","NORAD_CAT_ID":25526,"ELEMENT_SET_NO":999,"REV_AT_EPOCH":65182,"BSTAR":0.0038621853,"MEAN_MOTION_DOT":3.961e-5,"MEAN_MOTION_DDOT":0}]
